{
  "norad_id": 48424,
  "name": "YAOGAN-30 09B",
  "history": [
    {
      "epoch": "2026-03-28T20:56:07.102752Z",
      "apogee_km": 562.8527508089219,
      "perigee_km": 556.5979903673406,
      "latitude_deg": 7.479841352620367e-06,
      "longitude_deg": 20.123797430953857,
      "height_km": 561.3638115024154,
      "semi_major_axis_km": 6937.862370588131,
      "eccentricity": 0.00045077,
      "inclination_deg": 34.9949,
      "raan_deg": 160.4399,
      "arg_perigee_deg": 209.5323,
      "mean_anomaly_deg": 150.5131,
      "mean_motion_rev_day": 15.02326201
    },
    {
      "epoch": "2026-03-29T04:54:35.963424Z",
      "apogee_km": 562.8787320339316,
      "perigee_km": 556.5472501320701,
      "latitude_deg": -5.1507336238173975e-05,
      "longitude_deg": -101.8483477269362,
      "height_km": 561.313320253952,
      "semi_major_axis_km": 6937.8499910830005,
      "eccentricity": 0.0004563,
      "inclination_deg": 34.9949,
      "raan_deg": 158.4156,
      "arg_perigee_deg": 212.0637,
      "mean_anomaly_deg": 147.9793,
      "mean_motion_rev_day": 15.02330222
    },
    {
      "epoch": "2026-03-30T04:50:02.262048Z",
      "apogee_km": 562.9114318772727,
      "perigee_km": 556.4648047773226,
      "latitude_deg": 1.5232587945886378e-05,
      "longitude_deg": -107.7624524900452,
      "height_km": 561.0828344061906,
      "semi_major_axis_km": 6937.825118327298,
      "eccentricity": 0.0004646,
      "inclination_deg": 34.9949,
      "raan_deg": 152.3435,
      "arg_perigee_deg": 219.7862,
      "mean_anomaly_deg": 140.2506,
      "mean_motion_rev_day": 15.02338301
    },
    {
      "epoch": "2026-03-30T06:25:44.011200Z",
      "apogee_km": 562.9173040847681,
      "perigee_km": 556.4594374731387,
      "latitude_deg": 5.088314329361294e-05,
      "longitude_deg": -132.15675802867204,
      "height_km": 561.0720681517492,
      "semi_major_axis_km": 6937.825370778953,
      "eccentricity": 0.00046541,
      "inclination_deg": 34.9949,
      "raan_deg": 151.9386,
      "arg_perigee_deg": 220.21,
      "mean_anomaly_deg": 139.8265,
      "mean_motion_rev_day": 15.02338219
    },
    {
      "epoch": "2026-03-30T14:24:12.646368Z",
      "apogee_km": 562.9134425937109,
      "perigee_km": 556.4425425501404,
      "latitude_deg": 4.627566976872176e-05,
      "longitude_deg": 105.87261656782178,
      "height_km": 560.9635669714573,
      "semi_major_axis_km": 6937.814992571925,
      "eccentricity": 0.00046635,
      "inclination_deg": 34.9949,
      "raan_deg": 149.9148,
      "arg_perigee_deg": 222.9635,
      "mean_anomaly_deg": 137.071,
      "mean_motion_rev_day": 15.0234159
    },
    {
      "epoch": "2026-03-30T20:46:59.514240Z",
      "apogee_km": 562.9278792034929,
      "perigee_km": 556.414387415617,
      "latitude_deg": -6.104018730811779e-07,
      "longitude_deg": 8.295863094117749,
      "height_km": 560.8918650721248,
      "semi_major_axis_km": 6937.808133309555,
      "eccentricity": 0.00046942,
      "inclination_deg": 34.9949,
      "raan_deg": 148.2954,
      "arg_perigee_deg": 225.003,
      "mean_anomaly_deg": 135.0298,
      "mean_motion_rev_day": 15.02343818
    },
    {
      "epoch": "2026-03-31T20:42:25.036992Z",
      "apogee_km": 562.9599957027431,
      "perigee_km": 556.3330248937064,
      "latitude_deg": 1.3965362374588569e-05,
      "longitude_deg": 2.384726606783871,
      "height_km": 560.5787390415873,
      "semi_major_axis_km": 6937.783510298224,
      "eccentricity": 0.0004776,
      "inclination_deg": 34.9948,
      "raan_deg": 142.2231,
      "arg_perigee_deg": 232.5676,
      "mean_anomaly_deg": 127.4598,
      "mean_motion_rev_day": 15.02351816
    },
    {
      "epoch": "2026-04-01T19:02:08.448576Z",
      "apogee_km": 562.9919760946304,
      "perigee_km": 556.2692792634098,
      "latitude_deg": -1.4359633490863637e-05,
      "longitude_deg": 20.869097769221188,
      "height_km": 560.2583654383673,
      "semi_major_axis_km": 6937.76762767902,
      "eccentricity": 0.0004845,
      "inclination_deg": 34.9947,
      "raan_deg": 136.5554,
      "arg_perigee_deg": 239.4339,
      "mean_anomaly_deg": 120.5891,
      "mean_motion_rev_day": 15.02356975
    },
    {
      "epoch": "2026-04-02T18:57:33.103872Z",
      "apogee_km": 562.9773899202137,
      "perigee_km": 556.227108385573,
      "latitude_deg": 3.0235161386587136e-06,
      "longitude_deg": 14.961289006517356,
      "height_km": 559.8517893200748,
      "semi_major_axis_km": 6937.7392491528935,
      "eccentricity": 0.00048649,
      "inclination_deg": 34.9945,
      "raan_deg": 130.4828,
      "arg_perigee_deg": 246.774,
      "mean_anomaly_deg": 113.2456,
      "mean_motion_rev_day": 15.02366193
    },
    {
      "epoch": "2026-04-03T12:30:10.795392Z",
      "apogee_km": 562.9746126242326,
      "perigee_km": 556.1689977946735,
      "latitude_deg": 8.364918769811083e-07,
      "longitude_deg": 106.63043961145556,
      "height_km": 559.5291549734231,
      "semi_major_axis_km": 6937.708805209452,
      "eccentricity": 0.00049048,
      "inclination_deg": 34.9944,
      "raan_deg": 126.0295,
      "arg_perigee_deg": 252.2264,
      "mean_anomaly_deg": 107.7909,
      "mean_motion_rev_day": 15.02376082
    },
    {
      "epoch": "2026-04-04T12:25:34.437216Z",
      "apogee_km": 562.979472570627,
      "perigee_km": 556.1040941427445,
      "latitude_deg": 3.84574650071076e-06,
      "longitude_deg": 100.7264434559343,
      "height_km": 559.0895637936987,
      "semi_major_axis_km": 6937.678783356686,
      "eccentricity": 0.00049551,
      "inclination_deg": 34.9943,
      "raan_deg": 119.9565,
      "arg_perigee_deg": 259.4564,
      "mean_anomaly_deg": 100.5586,
      "mean_motion_rev_day": 15.02385834
    },
    {
      "epoch": "2026-04-05T12:20:57.598656Z",
      "apogee_km": 562.9398498137234,
      "perigee_km": 556.1005685837517,
      "latitude_deg": -1.702613135569803e-05,
      "longitude_deg": 94.82451960251693,
      "height_km": 558.6439486181285,
      "semi_major_axis_km": 6937.657209198737,
      "eccentricity": 0.00049291,
      "inclination_deg": 34.9944,
      "raan_deg": 113.8836,
      "arg_perigee_deg": 266.5651,
      "mean_anomaly_deg": 93.4493,
      "mean_motion_rev_day": 15.02392842
    },
    {
      "epoch": "2026-04-06T07:29:15.864288Z",
      "apogee_km": 562.9303544938984,
      "perigee_km": 556.0765207527611,
      "latitude_deg": -2.339659987153717e-05,
      "longitude_deg": 162.1041156574746,
      "height_km": 558.3000347775885,
      "semi_major_axis_km": 6937.6404376233295,
      "eccentricity": 0.00049396,
      "inclination_deg": 34.9946,
      "raan_deg": 109.0253,
      "arg_perigee_deg": 272.0461,
      "mean_anomaly_deg": 87.9681,
      "mean_motion_rev_day": 15.0239829
    },
    {
      "epoch": "2026-04-07T10:36:01.336032Z",
      "apogee_km": 562.8790137524229,
      "perigee_km": 556.0847260883538,
      "latitude_deg": 2.673599313831547e-05,
      "longitude_deg": 107.41894208312705,
      "height_km": 557.7742216897846,
      "semi_major_axis_km": 6937.618869920388,
      "eccentricity": 0.00048967,
      "inclination_deg": 34.9947,
      "raan_deg": 102.143,
      "arg_perigee_deg": 280.6307,
      "mean_anomaly_deg": 79.385,
      "mean_motion_rev_day": 15.02405296
    },
    {
      "epoch": "2026-04-07T16:58:47.286336Z",
      "apogee_km": 562.8851731457653,
      "perigee_km": 556.0724344264472,
      "latitude_deg": -1.1622028916346307e-05,
      "longitude_deg": 9.845833305165632,
      "height_km": 557.674623384091,
      "semi_major_axis_km": 6937.615803786106,
      "eccentricity": 0.000491,
      "inclination_deg": 34.9948,
      "raan_deg": 100.5234,
      "arg_perigee_deg": 282.2587,
      "mean_anomaly_deg": 77.7571,
      "mean_motion_rev_day": 15.02406292
    }
  ]
}